{
    "links": {
        "self": "http://www.neowsapp.com/rest/v1/neo/54016205?api_key=iIulBulltgU6a56xZRHN4H3l9WmuAYTsLGpBGhQ2"
    },
    "id": "54016205",
    "neo_reference_id": "54016205",
    "name": "(2020 FN)",
    "designation": "2020 FN",
    "nasa_jpl_url": "http://ssd.jpl.nasa.gov/sbdb.cgi?sstr=54016205",
    "absolute_magnitude_h": 27.621,
    "estimated_diameter": {
        "kilometers": {
            "estimated_diameter_min": 0.0079497776,
            "estimated_diameter_max": 0.017776243
        },
        "meters": {
            "estimated_diameter_min": 7.9497775531,
            "estimated_diameter_max": 17.7762430148
        },
        "miles": {
            "estimated_diameter_min": 0.0049397612,
            "estimated_diameter_max": 0.0110456419
        },
        "feet": {
            "estimated_diameter_min": 26.0819481874,
            "estimated_diameter_max": 58.3210091327
        }
    },
    "is_potentially_hazardous_asteroid": false,
    "close_approach_data": [
        {
            "close_approach_date": "2017-01-24",
            "close_approach_date_full": "2017-Jan-24 04:36",
            "epoch_date_close_approach": 1485232560000,
            "relative_velocity": {
                "kilometers_per_second": "22.1804306538",
                "kilometers_per_hour": "79849.5503537617",
                "miles_per_hour": "49615.405329536"
            },
            "miss_distance": {
                "astronomical": "0.4929525066",
                "lunar": "191.7585250674",
                "kilometers": "73744644.998520942",
                "miles": "45822797.5707233196"
            },
            "orbiting_body": "Earth"
        },
        {
            "close_approach_date": "2020-03-19",
            "close_approach_date_full": "2020-Mar-19 13:46",
            "epoch_date_close_approach": 1584625560000,
            "relative_velocity": {
                "kilometers_per_second": "6.9092383695",
                "kilometers_per_hour": "24873.2581302635",
                "miles_per_hour": "15455.275308774"
            },
            "miss_distance": {
                "astronomical": "0.0119747266",
                "lunar": "4.6581686474",
                "kilometers": "1791393.593192342",
                "miles": "1113120.3627326396"
            },
            "orbiting_body": "Earth"
        },
        {
            "close_approach_date": "2023-01-02",
            "close_approach_date_full": "2023-Jan-02 19:28",
            "epoch_date_close_approach": 1672687680000,
            "relative_velocity": {
                "kilometers_per_second": "15.1651506599",
                "kilometers_per_hour": "54594.5423758092",
                "miles_per_hour": "33922.9255112354"
            },
            "miss_distance": {
                "astronomical": "0.0278377369",
                "lunar": "10.8288796541",
                "kilometers": "4164466.145860403",
                "miles": "2587679.2707554414"
            },
            "orbiting_body": "Mars"
        },
        {
            "close_approach_date": "2023-05-21",
            "close_approach_date_full": "2023-May-21 23:07",
            "epoch_date_close_approach": 1684710420000,
            "relative_velocity": {
                "kilometers_per_second": "18.9407348881",
                "kilometers_per_hour": "68186.6455970524",
                "miles_per_hour": "42368.529871124"
            },
            "miss_distance": {
                "astronomical": "0.3809014307",
                "lunar": "148.1706565423",
                "kilometers": "56982042.712672609",
                "miles": "35406999.4972716442"
            },
            "orbiting_body": "Earth"
        },
        {
            "close_approach_date": "2029-09-10",
            "close_approach_date_full": "2029-Sep-10 23:59",
            "epoch_date_close_approach": 1883779140000,
            "relative_velocity": {
                "kilometers_per_second": "15.7194059011",
                "kilometers_per_hour": "56589.8612440162",
                "miles_per_hour": "35162.7390602055"
            },
            "miss_distance": {
                "astronomical": "0.0583513692",
                "lunar": "22.6986826188",
                "kilometers": "8729240.543903604",
                "miles": "5424098.5551895752"
            },
            "orbiting_body": "Mars"
        }
    ],
    "orbital_data": {
        "orbit_id": "4",
        "orbit_determination_date": "2020-03-20 06:06:22",
        "first_observation_date": "2020-03-16",
        "last_observation_date": "2020-03-19",
        "data_arc_in_days": 3,
        "observations_used": 55,
        "orbit_uncertainty": "7",
        "minimum_orbit_intersection": ".0107935",
        "jupiter_tisserand_invariant": "3.545",
        "epoch_osculation": "2459000.5",
        "eccentricity": ".5241006931822789",
        "semi_major_axis": "2.115821605383424",
        "inclination": "1.548338423862435",
        "ascending_node_longitude": "353.7652209162239",
        "orbital_period": "1124.131190862081",
        "perihelion_distance": "1.006918035351929",
        "perihelion_argument": "188.4723873422064",
        "aphelion_distance": "3.224725175414918",
        "perihelion_time": "2458930.553847683821",
        "mean_anomaly": "22.40006774877736",
        "mean_motion": ".3202473189307386",
        "equinox": "J2000",
        "orbit_class": {
            "orbit_class_type": "APO",
            "orbit_class_description": "Near-Earth asteroid orbits which cross the Earth’s orbit similar to that of 1862 Apollo",
            "orbit_class_range": "a (semi-major axis) > 1.0 AU; q (perihelion) < 1.017 AU"
        }
    },
    "is_sentry_object": false
}